ONEWEB-0564             
1 55801U 23029F   25003.44317483  .00000114  00000+0  24809-3 0  9990
2 55801  87.9249  19.8692 0002092  82.0310 278.1061 13.20772309 91225
ONEWEB-0638             
1 55802U 23029G   25003.53717378  .00000208  00000+0  52524-3 0  9997
2 55802  87.9000  35.0809 0001623  77.6857 282.4454 13.14503677 89815
ONEWEB-0639             
1 55803U 23029H   25003.52741507  .00004074  00000+0  10137-1 0  9995
2 55803  87.9053  50.2831 0001765 132.4855 227.6428 13.19743541 89737
ONEWEB-0640             
1 55804U 23029J   25003.54667651  .00000258  00000+0  66152-3 0  9995
2 55804  87.8999  35.0708 0001171  75.2490 284.8769 13.14506301 90517
ONEWEB-0641             
1 55805U 23029K   25003.59849769  .00001052  00000+0  25953-2 0  9999
2 55805  87.9157  50.2533 0001816 103.4626 256.6709 13.19735983 89065
ONEWEB-0642             
1 55806U 23029L   25003.59376572  .00000041  00000+0  69532-4 0  9997
2 55806  87.9162  50.2850 0001560 130.1838 229.9431 13.19726445 89059
ONEWEB-0643             
1 55807U 23029M   25003.51654696  .00000126  00000+0  30472-3 0  9990
2 55807  87.8994  35.0565 0001856 124.4193 235.7112 13.14505931 89808
ONEWEB-0644             
1 55808U 23029N   25003.51321707  .00000017  00000+0  10402-4 0  9996
2 55808  87.9164  50.3013 0001644 116.5555 243.5746 13.19726165 89041
